<?xml version="1.0" encoding="utf-8"?><kml xmlns="http://www.opengis.net/kml/2.2"><Document><Style id="diy0"><LineStyle><width>1</width><color>FFff0000</color></LineStyle><PolyStyle><color>E500ffff</color></PolyStyle></Style><Style id="diy1"><LineStyle><width>1</width><color>FFff0000</color></LineStyle><PolyStyle><color>E5c080ff</color></PolyStyle></Style><Style id="diy2"><LineStyle><width>1</width><color>FFff0000</color></LineStyle><PolyStyle><color>E50000ff</color></PolyStyle></Style><Style id="btsname"><IconStyle><Icon /></IconStyle><LabelStyle><scale>0.6</scale><color>FFc0ffff</color></LabelStyle></Style><Folder><name>基站名称</name><Placemark><name>市区理工医药园-NGH-1</name><styleUrl>#btsname</styleUrl><Point><extrude>1</extrude><altitudeMode>clampToGround</altitudeMode><coordinates>112.547297577926,32.9673972862331,5</coordinates></Point></Placemark><Placemark><name>市区理工医药园-NGH-2</name><styleUrl>#btsname</styleUrl><Point><extrude>1</extrude><altitudeMode>clampToGround</altitudeMode><coordinates>112.5482451638,32.9662565758347,5</coordinates></Point></Placemark><Placemark><name>市区理工医药园-NGH-3</name><styleUrl>#btsname</styleUrl><Point><extrude>1</extrude><altitudeMode>clampToGround</altitudeMode><coordinates>112.546786039161,32.9664733258964,5</coordinates></Point></Placemark><Placemark><name>市区理工青年公寓-NGH-1</name><styleUrl>#btsname</styleUrl><Point><extrude>1</extrude><altitudeMode>clampToGround</altitudeMode><coordinates>112.545368471479,32.9723997848403,5</coordinates></Point></Placemark><Placemark><name>市区理工青年公寓-NGH-2</name><styleUrl>#btsname</styleUrl><Point><extrude>1</extrude><altitudeMode>clampToGround</altitudeMode><coordinates>112.546075751362,32.9716899970683,5</coordinates></Point></Placemark><Placemark><name>市区理工青年公寓-NGH-3</name><styleUrl>#btsname</styleUrl><Point><extrude>1</extrude><altitudeMode>clampToGround</altitudeMode><coordinates>112.544479150107,32.9713294516326,5</coordinates></Point></Placemark><Placemark><name>市区理工国医学堂-NGH-1</name><styleUrl>#btsname</styleUrl><Point><extrude>1</extrude><altitudeMode>clampToGround</altitudeMode><coordinates>112.547332428451,32.9693272860644,5</coordinates></Point></Placemark><Placemark><name>市区理工国医学堂-NGH-2</name><styleUrl>#btsname</styleUrl><Point><extrude>1</extrude><altitudeMode>clampToGround</altitudeMode><coordinates>112.547467493888,32.9680258436884,5</coordinates></Point></Placemark><Placemark><name>市区理工国医学堂-NGH-3</name><styleUrl>#btsname</styleUrl><Point><extrude>1</extrude><altitudeMode>clampToGround</altitudeMode><coordinates>112.546197316228,32.9685247425567,5</coordinates></Point></Placemark><Placemark><name>市区理工大学南-NGH-1</name><styleUrl>#btsname</styleUrl><Point><extrude>1</extrude><altitudeMode>clampToGround</altitudeMode><coordinates>112.55147,32.9644507300817,5</coordinates></Point></Placemark><Placemark><name>市区理工大学南-NGH-2</name><styleUrl>#btsname</styleUrl><Point><extrude>1</extrude><altitudeMode>clampToGround</altitudeMode><coordinates>112.552210783362,32.9633694512153,5</coordinates></Point></Placemark><Placemark><name>市区理工大学南-NGH-3</name><styleUrl>#btsname</styleUrl><Point><extrude>1</extrude><altitudeMode>clampToGround</altitudeMode><coordinates>112.550729216638,32.9633694512153,5</coordinates></Point></Placemark><Placemark><name>市区理工宿舍楼-NGH-1</name><styleUrl>#btsname</styleUrl><Point><extrude>1</extrude><altitudeMode>clampToGround</altitudeMode><coordinates>112.553687519116,32.9682342236902,5</coordinates></Point></Placemark><Placemark><name>市区理工宿舍楼-NGH-2</name><styleUrl>#btsname</styleUrl><Point><extrude>1</extrude><altitudeMode>clampToGround</altitudeMode><coordinates>112.553687488865,32.9669858436043,5</coordinates></Point></Placemark><Placemark><name>市区理工宿舍楼-NGH-3</name><styleUrl>#btsname</styleUrl><Point><extrude>1</extrude><altitudeMode>clampToGround</altitudeMode><coordinates>112.552404287977,32.9676099970688,5</coordinates></Point></Placemark></Folder><Folder><name>基站扇区</name><Placemark><name>市区理工医药园-NGH-1</name><description><![CDATA[<table width='300' border='1'><tr><th scope="col">TAC号</th><th scope="col">12202</th></tr><tr><th scope="col">站点号</th><th scope="col">240912</th></tr><tr><th scope="col">站点名</th><th scope="col">市区理工医药园-NGH</th></tr><tr><th scope="col">小区号</th><th scope="col">128</th></tr><tr><th scope="col">小区名</th><th scope="col">市区理工医药园-NGH-1</th></tr><tr><th scope="col">PCI</th><th scope="col">0</th></tr><tr><th scope="col">PRACH</th><th scope="col">0</th></tr><tr><th scope="col">经度</th><th scope="col">112.54759</th></tr><tr><th scope="col">纬度</th><th scope="col">32.96672</th></tr><tr><th scope="col">半径_米</th><th scope="col">500</th></tr><tr><th scope="col">波瓣_度</th><th scope="col">65</th></tr><tr><th scope="col">覆盖类型</th><th scope="col">宏站</th></tr><tr><th scope="col">频段</th><th scope="col">F</th></tr><tr><th scope="col">下行频点</th><th scope="col">38400</th></tr><tr><th scope="col">上行频点</th><th scope="col"></th></tr><tr><th scope="col">方向角</th><th scope="col">340</th></tr><tr><th scope="col">双工</th><th scope="col">TDD</th></tr><tr><th scope="col">机械下倾角</th><th scope="col">3</th></tr><tr><th scope="col">电子下倾角</th><th scope="col">4</th></tr><tr><th scope="col">天线挂高</th><th scope="col">30</th></tr></table>]]></description><styleUrl>#diy0</styleUrl><Polygon><extrude>1</extrude><altitudeMode>clampToGround</altitudeMode><outerBoundaryIs><LinearRing><coordinates>112.54759,32.96672,5 112.54759,32.9674407298065,5 112.547575078891,32.9674406200841,5 112.547560162323,32.9674402909503,5 112.547545254833,32.9674397425062,5 112.547530360957,32.9674389749201,5 112.547515485226,32.9674379884272,5 112.547500632166,32.9674367833301,5 112.547485806295,32.9674353599983,5 112.547471012123,32.9674337188682,5 112.547456254148,32.9674318604429,5 112.547441536859,32.9674297852919,5 112.54742686473,32.9674274940511,5 112.547412242222,32.9674249874224,5 112.54739767378,32.9674222661737,5 112.547383163831,32.967419331138,5 112.547368716784,32.9674161832138,5 112.547354337029,32.9674128233646,5 112.547340028932,32.9674092526181,5 112.547325796839,32.9674054720663,5 112.547311645072,32.9674014828649,5 112.547297577926,32.9673972862331,5 112.54728359967,32.9673928834527,5 112.547269714548,32.9673882758682,5 112.54725592677,32.9673834648858,5 112.54724224052,32.9673784519732,5 112.547228659947,32.9673732386591,5 112.547215189172,32.9673678265325,5 112.547201832276,32.9673622172423,5 112.54718859331,32.9673564124965,5 112.547175476287,32.9673504140618,5 112.547162485182,32.9673442237632,5 112.547149623933,32.9673378434827,5 112.547136896436,32.9673312751595,5 112.54712430655,32.9673245207888,5 112.54711185809,32.9673175824213,5 112.547099554829,32.9673104621626,5 112.547087400497,32.9673031621726,5 112.547075398778,32.9672956846645,5 112.547063553312,32.9672880319045,5 112.547051867691,32.9672802062108,5 112.54704034546,32.9672722099531,5 112.54759,32.96672,5</coordinates></LinearRing></outerBoundaryIs></Polygon></Placemark><Placemark><name>市区理工医药园-NGH-2</name><description><![CDATA[<table width='300' border='1'><tr><th scope="col">TAC号</th><th scope="col">12202</th></tr><tr><th scope="col">站点号</th><th scope="col">240912</th></tr><tr><th scope="col">站点名</th><th scope="col">市区理工医药园-NGH</th></tr><tr><th scope="col">小区号</th><th scope="col">129</th></tr><tr><th scope="col">小区名</th><th scope="col">市区理工医药园-NGH-2</th></tr><tr><th scope="col">PCI</th><th scope="col">1</th></tr><tr><th scope="col">PRACH</th><th scope="col">4</th></tr><tr><th scope="col">经度</th><th scope="col">112.54759</th></tr><tr><th scope="col">纬度</th><th scope="col">32.96672</th></tr><tr><th scope="col">半径_米</th><th scope="col">500</th></tr><tr><th scope="col">波瓣_度</th><th scope="col">65</th></tr><tr><th scope="col">覆盖类型</th><th scope="col">宏站</th></tr><tr><th scope="col">频段</th><th scope="col">F</th></tr><tr><th scope="col">下行频点</th><th scope="col">38400</th></tr><tr><th scope="col">上行频点</th><th scope="col"></th></tr><tr><th scope="col">方向角</th><th scope="col">130</th></tr><tr><th scope="col">双工</th><th scope="col">TDD</th></tr><tr><th scope="col">机械下倾角</th><th scope="col">3</th></tr><tr><th scope="col">电子下倾角</th><th scope="col">5</th></tr><tr><th scope="col">天线挂高</th><th scope="col">30</th></tr></table>]]></description><styleUrl>#diy0</styleUrl><Polygon><extrude>1</extrude><altitudeMode>clampToGround</altitudeMode><outerBoundaryIs><LinearRing><coordinates>112.54759,32.96672,5 112.548017484566,32.9660958435324,5 112.548030348117,32.9661022186154,5 112.548043078041,32.9661087818735,5 112.548055670464,32.9661155313267,5 112.548068121548,32.9661224649383,5 112.548080427501,32.9661295806153,5 112.548092584572,32.966136876209,5 112.548104589055,32.9661443495157,5 112.548116437291,32.9661519982773,5 112.548128125666,32.966159820182,5 112.548139650615,32.9661678128652,5 112.548151008623,32.9661759739096,5 112.548162196223,32.9661843008468,5 112.54817321,32.9661927911571,5 112.548184046593,32.9662014422712,5 112.548194702692,32.9662102515701,5 112.548205175041,32.9662192163868,5 112.548215460442,32.9662283340062,5 112.54822555575,32.9662376016666,5 112.548235457879,32.9662470165604,5 112.5482451638,32.9662565758347,5 112.548254670544,32.9662662765923,5 112.548263975201,32.9662761158929,5 112.548273074919,32.9662860907535,5 112.548281966912,32.9662961981493,5 112.548290648451,32.9663064350152,5 112.548299116874,32.966316798246,5 112.548307369579,32.9663272846976,5 112.54831540403,32.966337891188,5 112.548323217756,32.9663486144979,5 112.54833080835,32.9663594513721,5 112.548338173472,32.9663703985197,5 112.548345310849,32.9663814526157,5 112.548352218275,32.9663926103017,5 112.548358893613,32.9664038681864,5 112.548365334794,32.9664152228471,5 112.548371539819,32.9664266708305,5 112.548377506758,32.9664382086531,5 112.548383233754,32.9664498328028,5 112.548388719019,32.9664615397396,5 112.548393960839,32.9664733258964,5 112.54759,32.96672,5</coordinates></LinearRing></outerBoundaryIs></Polygon></Placemark><Placemark><name>市区理工医药园-NGH-3</name><description><![CDATA[<table width='300' border='1'><tr><th scope="col">TAC号</th><th scope="col">12202</th></tr><tr><th scope="col">站点号</th><th scope="col">240912</th></tr><tr><th scope="col">站点名</th><th scope="col">市区理工医药园-NGH</th></tr><tr><th scope="col">小区号</th><th scope="col">130</th></tr><tr><th scope="col">小区名</th><th scope="col">市区理工医药园-NGH-3</th></tr><tr><th scope="col">PCI</th><th scope="col">2</th></tr><tr><th scope="col">PRACH</th><th scope="col">8</th></tr><tr><th scope="col">经度</th><th scope="col">112.54759</th></tr><tr><th scope="col">纬度</th><th scope="col">32.96672</th></tr><tr><th scope="col">半径_米</th><th scope="col">500</th></tr><tr><th scope="col">波瓣_度</th><th scope="col">65</th></tr><tr><th scope="col">覆盖类型</th><th scope="col">宏站</th></tr><tr><th scope="col">频段</th><th scope="col">F</th></tr><tr><th scope="col">下行频点</th><th scope="col">38400</th></tr><tr><th scope="col">上行频点</th><th scope="col"></th></tr><tr><th scope="col">方向角</th><th scope="col">250</th></tr><tr><th scope="col">双工</th><th scope="col">TDD</th></tr><tr><th scope="col">机械下倾角</th><th scope="col">3</th></tr><tr><th scope="col">电子下倾角</th><th scope="col">5</th></tr><tr><th scope="col">天线挂高</th><th scope="col">30</th></tr></table>]]></description><styleUrl>#diy0</styleUrl><Polygon><extrude>1</extrude><altitudeMode>clampToGround</altitudeMode><outerBoundaryIs><LinearRing><coordinates>112.54759,32.96672,5 112.546734296557,32.9667199970689,5 112.546734426964,32.9667074078346,5 112.546734818858,32.96669482247,5 112.54673547211,32.9666822448471,5 112.546736386508,32.9666696788347,5 112.546737561757,32.9666571282976,5 112.546738997476,32.9666445970946,5 112.546740693203,32.9666320890772,5 112.546742648391,32.9666196080886,5 112.546744862412,32.9666071579618,5 112.546747334556,32.9665947425185,5 112.546750064031,32.9665823655682,5 112.546753049966,32.9665700309061,5 112.546756291406,32.9665577423125,5 112.546759787322,32.9665455035513,5 112.546763536601,32.9665333183691,5 112.546767538055,32.9665211904934,5 112.546771790419,32.9665091236323,5 112.546776292349,32.9664971214729,5 112.546781042428,32.9664851876802,5 112.546786039161,32.9664733258964,5 112.546791280981,32.9664615397396,5 112.546796766246,32.9664498328028,5 112.546802493242,32.9664382086531,5 112.546808460181,32.9664266708305,5 112.546814665206,32.9664152228471,5 112.546821106387,32.9664038681864,5 112.546827781725,32.9663926103017,5 112.546834689151,32.9663814526157,5 112.546841826528,32.9663703985197,5 112.54684919165,32.9663594513721,5 112.546856782244,32.9663486144979,5 112.54686459597,32.966337891188,5 112.546872630421,32.9663272846976,5 112.546880883126,32.966316798246,5 112.546889351549,32.9663064350152,5 112.546898033088,32.9662961981493,5 112.546906925081,32.9662860907535,5 112.546916024799,32.9662761158929,5 112.546925329456,32.9662662765923,5 112.5469348362,32.9662565758347,5 112.54759,32.96672,5</coordinates></LinearRing></outerBoundaryIs></Polygon></Placemark><Placemark><name>市区理工青年公寓-NGH-1</name><description><![CDATA[<table width='300' border='1'><tr><th scope="col">TAC号</th><th scope="col">12202</th></tr><tr><th scope="col">站点号</th><th scope="col">240913</th></tr><tr><th scope="col">站点名</th><th scope="col">市区理工青年公寓-NGH</th></tr><tr><th scope="col">小区号</th><th scope="col">128</th></tr><tr><th scope="col">小区名</th><th scope="col">市区理工青年公寓-NGH-1</th></tr><tr><th scope="col">PCI</th><th scope="col">3</th></tr><tr><th scope="col">PRACH</th><th scope="col">12</th></tr><tr><th scope="col">经度</th><th scope="col">112.54522</th></tr><tr><th scope="col">纬度</th><th scope="col">32.97169</th></tr><tr><th scope="col">半径_米</th><th scope="col">500</th></tr><tr><th scope="col">波瓣_度</th><th scope="col">65</th></tr><tr><th scope="col">覆盖类型</th><th scope="col">宏站</th></tr><tr><th scope="col">频段</th><th scope="col">1800</th></tr><tr><th scope="col">下行频点</th><th scope="col">1300</th></tr><tr><th scope="col">上行频点</th><th scope="col"></th></tr><tr><th scope="col">方向角</th><th scope="col">10</th></tr><tr><th scope="col">双工</th><th scope="col">FDD</th></tr><tr><th scope="col">机械下倾角</th><th scope="col">3</th></tr><tr><th scope="col">电子下倾角</th><th scope="col">3</th></tr><tr><th scope="col">天线挂高</th><th scope="col">30</th></tr></table>]]></description><styleUrl>#diy1</styleUrl><Polygon><extrude>1</extrude><altitudeMode>clampToGround</altitudeMode><outerBoundaryIs><LinearRing><coordinates>112.54522,32.97169,5 112.545754421437,32.9724702703545,5 112.545738181341,32.972478007584,5 112.545721783856,32.9724855049708,5 112.545705233954,32.9724927602362,5 112.545688536656,32.9724997711742,5 112.545671697023,32.9725065356522,5 112.545654720162,32.9725130516117,5 112.545637611225,32.9725193170693,5 112.545620375399,32.9725253301168,5 112.545603017915,32.9725310889224,5 112.545585544039,32.9725365917309,5 112.545567959075,32.9725418368647,5 112.545550268359,32.9725468227242,5 112.545532477262,32.9725515477882,5 112.545514591186,32.9725560106149,5 112.545496615562,32.9725602098419,5 112.54547855585,32.9725641441869,5 112.545460417535,32.9725678124482,5 112.545442206127,32.9725712135051,5 112.545423927161,32.9725743463184,5 112.54540558619,32.9725772099304,5 112.54538718879,32.9725798034658,5 112.545368740551,32.9725821261316,5 112.545350247083,32.9725841772173,5 112.545331714007,32.9725859560956,5 112.545313146958,32.9725874622224,5 112.545294551583,32.9725886951369,5 112.545275933535,32.9725896544619,5 112.545257298476,32.9725903399038,5 112.545238652074,32.9725907512528,5 112.54522,32.9725908883832,5 112.545201347926,32.9725907512528,5 112.545182701524,32.9725903399038,5 112.545164066465,32.9725896544619,5 112.545145448417,32.9725886951369,5 112.545126853042,32.9725874622224,5 112.545108285993,32.9725859560956,5 112.545089752917,32.9725841772173,5 112.545071259449,32.9725821261316,5 112.54505281121,32.9725798034658,5 112.54503441381,32.9725772099304,5 112.54522,32.97169,5</coordinates></LinearRing></outerBoundaryIs></Polygon></Placemark><Placemark><name>市区理工青年公寓-NGH-2</name><description><![CDATA[<table width='300' border='1'><tr><th scope="col">TAC号</th><th scope="col">12202</th></tr><tr><th scope="col">站点号</th><th scope="col">240913</th></tr><tr><th scope="col">站点名</th><th scope="col">市区理工青年公寓-NGH</th></tr><tr><th scope="col">小区号</th><th scope="col">129</th></tr><tr><th scope="col">小区名</th><th scope="col">市区理工青年公寓-NGH-2</th></tr><tr><th scope="col">PCI</th><th scope="col">4</th></tr><tr><th scope="col">PRACH</th><th scope="col">16</th></tr><tr><th scope="col">经度</th><th scope="col">112.54522</th></tr><tr><th scope="col">纬度</th><th scope="col">32.97169</th></tr><tr><th scope="col">半径_米</th><th scope="col">500</th></tr><tr><th scope="col">波瓣_度</th><th scope="col">65</th></tr><tr><th scope="col">覆盖类型</th><th scope="col">宏站</th></tr><tr><th scope="col">频段</th><th scope="col">1800</th></tr><tr><th scope="col">下行频点</th><th scope="col">1300</th></tr><tr><th scope="col">上行频点</th><th scope="col"></th></tr><tr><th scope="col">方向角</th><th scope="col">90</th></tr><tr><th scope="col">双工</th><th scope="col">FDD</th></tr><tr><th scope="col">机械下倾角</th><th scope="col">3</th></tr><tr><th scope="col">电子下倾角</th><th scope="col">3</th></tr><tr><th scope="col">天线挂高</th><th scope="col">30</th></tr></table>]]></description><styleUrl>#diy1</styleUrl><Polygon><extrude>1</extrude><altitudeMode>clampToGround</altitudeMode><outerBoundaryIs><LinearRing><coordinates>112.54522,32.97169,5 112.546225003981,32.9713816570852,5 112.546231250415,32.9713964842681,5 112.546237188517,32.9714114014627,5 112.546242816419,32.9714264041168,5 112.546248132346,32.9714414876492,5 112.546253134619,32.9714566474514,5 112.546257821656,32.9714718788885,5 112.546262191969,32.971487177301,5 112.54626624417,32.971502538006,5 112.546269976969,32.9715179562986,5 112.546273389175,32.9715334274535,5 112.546276479696,32.9715489467264,5 112.546279247544,32.9715645093559,5 112.546281691831,32.9715801105647,5 112.54628381177,32.9715957455613,5 112.546285606681,32.971611409542,5 112.546287075985,32.9716270976922,5 112.546288219206,32.9716428051883,5 112.546289035975,32.9716585271997,5 112.546289526027,32.9716742588899,5 112.546289689203,32.9716899954193,5 112.546289525447,32.9717057319459,5 112.54628903481,32.9717214636281,5 112.546288217449,32.9717371856258,5 112.546287073626,32.9717528931026,5 112.546285603706,32.9717685812275,5 112.546283808163,32.9717842451766,5 112.546281687571,32.971799880135,5 112.546279242611,32.9718154812986,5 112.546276474066,32.9718310438756,5 112.546273382825,32.9718465630885,5 112.546269969875,32.9718620341754,5 112.546266236309,32.9718774523921,5 112.546262183317,32.9718928130134,5 112.546257812193,32.9719081113346,5 112.546253124329,32.9719233426734,5 112.546248121213,32.971938502371,5 112.546242804436,32.9719535857938,5 112.54623717568,32.9719685883348,5 112.546231236728,32.971983505415,5 112.546224989454,32.9719983324846,5 112.54522,32.97169,5</coordinates></LinearRing></outerBoundaryIs></Polygon></Placemark><Placemark><name>市区理工青年公寓-NGH-3</name><description><![CDATA[<table width='300' border='1'><tr><th scope="col">TAC号</th><th scope="col">12202</th></tr><tr><th scope="col">站点号</th><th scope="col">240913</th></tr><tr><th scope="col">站点名</th><th scope="col">市区理工青年公寓-NGH</th></tr><tr><th scope="col">小区号</th><th scope="col">130</th></tr><tr><th scope="col">小区名</th><th scope="col">市区理工青年公寓-NGH-3</th></tr><tr><th scope="col">PCI</th><th scope="col">5</th></tr><tr><th scope="col">PRACH</th><th scope="col">20</th></tr><tr><th scope="col">经度</th><th scope="col">112.54522</th></tr><tr><th scope="col">纬度</th><th scope="col">32.97169</th></tr><tr><th scope="col">半径_米</th><th scope="col">500</th></tr><tr><th scope="col">波瓣_度</th><th scope="col">65</th></tr><tr><th scope="col">覆盖类型</th><th scope="col">宏站</th></tr><tr><th scope="col">频段</th><th scope="col">1800</th></tr><tr><th scope="col">下行频点</th><th scope="col">1300</th></tr><tr><th scope="col">上行频点</th><th scope="col"></th></tr><tr><th scope="col">方向角</th><th scope="col">240</th></tr><tr><th scope="col">双工</th><th scope="col">FDD</th></tr><tr><th scope="col">机械下倾角</th><th scope="col">3</th></tr><tr><th scope="col">电子下倾角</th><th scope="col">3</th></tr><tr><th scope="col">天线挂高</th><th scope="col">30</th></tr></table>]]></description><styleUrl>#diy1</styleUrl><Polygon><extrude>1</extrude><altitudeMode>clampToGround</altitudeMode><outerBoundaryIs><LinearRing><coordinates>112.54522,32.97169,5 112.544166610825,32.9715334274535,5 112.544170023031,32.9715179562986,5 112.54417375583,32.971502538006,5 112.544177808031,32.971487177301,5 112.544182178344,32.9714718788885,5 112.544186865381,32.9714566474514,5 112.544191867654,32.9714414876492,5 112.544197183581,32.9714264041168,5 112.544202811483,32.9714114014627,5 112.544208749585,32.9713964842681,5 112.544214996019,32.9713816570852,5 112.544221548825,32.9713669244362,5 112.544228405948,32.9713522908119,5 112.544235565245,32.9713377606707,5 112.54424302448,32.9713233384368,5 112.544250781329,32.9713090284998,5 112.544258833379,32.9712948352129,5 112.544267178129,32.9712807628921,5 112.544275812992,32.9712668158148,5 112.544284735294,32.9712529982187,5 112.544293942276,32.971239314301,5 112.544303431096,32.9712257682166,5 112.544313198826,32.9712123640778,5 112.544323242459,32.9711991059523,5 112.544333558903,32.9711859978628,5 112.544344144986,32.9711730437855,5 112.544354997457,32.971160247649,5 112.544366112986,32.9711476133334,5 112.544377488162,32.9711351446689,5 112.544389119501,32.9711228454348,5 112.54440100344,32.9711107193587,5 112.544413136341,32.9710987701149,5 112.544425514492,32.9710870013235,5 112.544438134107,32.9710754165495,5 112.54445099133,32.9710640193016,5 112.544464082232,32.9710528130313,5 112.544477402815,32.9710418011313,5 112.54449094901,32.9710309869353,5 112.544504716684,32.9710203737164,5 112.544518701635,32.9710099646862,5 112.544532899596,32.9709997629942,5 112.54522,32.97169,5</coordinates></LinearRing></outerBoundaryIs></Polygon></Placemark><Placemark><name>市区理工国医学堂-NGH-1</name><description><![CDATA[<table width='300' border='1'><tr><th scope="col">TAC号</th><th scope="col">12202</th></tr><tr><th scope="col">站点号</th><th scope="col">240914</th></tr><tr><th scope="col">站点名</th><th scope="col">市区理工国医学堂-NGH</th></tr><tr><th scope="col">小区号</th><th scope="col">128</th></tr><tr><th scope="col">小区名</th><th scope="col">市区理工国医学堂-NGH-1</th></tr><tr><th scope="col">PCI</th><th scope="col">6</th></tr><tr><th scope="col">PRACH</th><th scope="col">24</th></tr><tr><th scope="col">经度</th><th scope="col">112.54704</th></tr><tr><th scope="col">纬度</th><th scope="col">32.96865</th></tr><tr><th scope="col">半径_米</th><th scope="col">500</th></tr><tr><th scope="col">波瓣_度</th><th scope="col">65</th></tr><tr><th scope="col">覆盖类型</th><th scope="col">宏站</th></tr><tr><th scope="col">频段</th><th scope="col">D</th></tr><tr><th scope="col">下行频点</th><th scope="col">37900</th></tr><tr><th scope="col">上行频点</th><th scope="col"></th></tr><tr><th scope="col">方向角</th><th scope="col">20</th></tr><tr><th scope="col">双工</th><th scope="col">TDD</th></tr><tr><th scope="col">机械下倾角</th><th scope="col">3</th></tr><tr><th scope="col">电子下倾角</th><th scope="col">3</th></tr><tr><th scope="col">天线挂高</th><th scope="col">30</th></tr></table>]]></description><styleUrl>#diy2</styleUrl><Polygon><extrude>1</extrude><altitudeMode>clampToGround</altitudeMode><outerBoundaryIs><LinearRing><coordinates>112.54704,32.96865,5 112.547452248883,32.9690641607487,5 112.547443607373,32.969070158366,5 112.547434843323,32.9690760280873,5 112.54742595939,32.9690817681347,5 112.547416958266,32.9690873767687,5 112.547407842677,32.9690928522889,5 112.547398615386,32.9690981930339,5 112.547389279187,32.9691033973827,5 112.547379836906,32.9691084637545,5 112.547370291404,32.9691133906094,5 112.54736064557,32.9691181764493,5 112.547350902325,32.9691228198176,5 112.547341064621,32.9691273193007,5 112.547331135437,32.9691316735275,5 112.547321117781,32.9691358811706,5 112.547311014687,32.9691399409464,5 112.547300829219,32.9691438516156,5 112.547290564461,32.9691476119838,5 112.547280223528,32.9691512209018,5 112.547269809554,32.9691546772659,5 112.547259325698,32.9691579800188,5 112.547248775142,32.9691611281492,5 112.547238161086,32.969164120693,5 112.547227486753,32.9691669567332,5 112.547216755385,32.9691696354001,5 112.547205970239,32.9691721558722,5 112.547195134594,32.969174517376,5 112.547184251742,32.9691767191866,5 112.547173324991,32.9691787606277,5 112.547162357662,32.9691806410722,5 112.547151353091,32.9691823599421,5 112.547140314625,32.969183916709,5 112.547129245623,32.9691853108943,5 112.547118149451,32.969186542069,5 112.547107029487,32.9691876098545,5 112.547095889115,32.9691885139221,5 112.547084731726,32.9691892539936,5 112.547073560718,32.9691898298411,5 112.547062379491,32.9691902412875,5 112.547051191449,32.969190488206,5 112.54704,32.9691905705206,5 112.54704,32.96865,5</coordinates></LinearRing></outerBoundaryIs></Polygon></Placemark><Placemark><name>市区理工国医学堂-NGH-2</name><description><![CDATA[<table width='300' border='1'><tr><th scope="col">TAC号</th><th scope="col">12202</th></tr><tr><th scope="col">站点号</th><th scope="col">240914</th></tr><tr><th scope="col">站点名</th><th scope="col">市区理工国医学堂-NGH</th></tr><tr><th scope="col">小区号</th><th scope="col">129</th></tr><tr><th scope="col">小区名</th><th scope="col">市区理工国医学堂-NGH-2</th></tr><tr><th scope="col">PCI</th><th scope="col">7</th></tr><tr><th scope="col">PRACH</th><th scope="col">28</th></tr><tr><th scope="col">经度</th><th scope="col">112.54704</th></tr><tr><th scope="col">纬度</th><th scope="col">32.96865</th></tr><tr><th scope="col">半径_米</th><th scope="col">500</th></tr><tr><th scope="col">波瓣_度</th><th scope="col">65</th></tr><tr><th scope="col">覆盖类型</th><th scope="col">宏站</th></tr><tr><th scope="col">频段</th><th scope="col">D</th></tr><tr><th scope="col">下行频点</th><th scope="col">37900</th></tr><tr><th scope="col">上行频点</th><th scope="col"></th></tr><tr><th scope="col">方向角</th><th scope="col">150</th></tr><tr><th scope="col">双工</th><th scope="col">TDD</th></tr><tr><th scope="col">机械下倾角</th><th scope="col">3</th></tr><tr><th scope="col">电子下倾角</th><th scope="col">3</th></tr><tr><th scope="col">天线挂高</th><th scope="col">30</th></tr></table>]]></description><styleUrl>#diy2</styleUrl><Polygon><extrude>1</extrude><altitudeMode>clampToGround</altitudeMode><outerBoundaryIs><LinearRing><coordinates>112.54704,32.96865,5 112.547151323518,32.9681178085547,5 112.547162325917,32.9681195238599,5 112.547173291283,32.9681214004659,5 112.547184216293,32.9681234378118,5 112.547195097637,32.9681256352886,5 112.547205932016,32.9681279922389,5 112.547216716143,32.9681305079576,5 112.547227446749,32.9681331816921,5 112.547238120578,32.9681360126417,5 112.547248734389,32.9681389999589,5 112.547259284962,32.9681421427486,5 112.547269769091,32.968145440069,5 112.547280183593,32.9681488909315,5 112.547290525304,32.9681524943011,5 112.547300791078,32.9681562490965,5 112.547310977796,32.9681601541907,5 112.547321082358,32.9681642084106,5 112.547331101691,32.9681684105382,5 112.547341032745,32.9681727593103,5 112.547350872497,32.9681772534189,5 112.54736061795,32.9681818915118,5 112.547370266136,32.9681866721927,5 112.547379814116,32.9681915940218,5 112.547389258978,32.9681966555161,5 112.547398597843,32.9682018551497,5 112.547407827864,32.9682071913543,5 112.547416946225,32.9682126625198,5 112.547425950145,32.9682182669946,5 112.547434836875,32.9682240030861,5 112.547443603703,32.9682298690614,5 112.547452247954,32.9682358631474,5 112.547460766986,32.9682419835317,5 112.547469158199,32.968248228363,5 112.54747741903,32.9682545957518,5 112.547485546954,32.9682610837707,5 112.547493539487,32.9682676904553,5 112.547501394188,32.9682744138046,5 112.547509108653,32.9682812517818,5 112.547516680526,32.9682882023147,5 112.547524107489,32.9682952632967,5 112.54753138727,32.9683024325871,5 112.54704,32.96865,5</coordinates></LinearRing></outerBoundaryIs></Polygon></Placemark><Placemark><name>市区理工国医学堂-NGH-3</name><description><![CDATA[<table width='300' border='1'><tr><th scope="col">TAC号</th><th scope="col">12202</th></tr><tr><th scope="col">站点号</th><th scope="col">240914</th></tr><tr><th scope="col">站点名</th><th scope="col">市区理工国医学堂-NGH</th></tr><tr><th scope="col">小区号</th><th scope="col">130</th></tr><tr><th scope="col">小区名</th><th scope="col">市区理工国医学堂-NGH-3</th></tr><tr><th scope="col">PCI</th><th scope="col">8</th></tr><tr><th scope="col">PRACH</th><th scope="col">32</th></tr><tr><th scope="col">经度</th><th scope="col">112.54704</th></tr><tr><th scope="col">纬度</th><th scope="col">32.96865</th></tr><tr><th scope="col">半径_米</th><th scope="col">500</th></tr><tr><th scope="col">波瓣_度</th><th scope="col">65</th></tr><tr><th scope="col">覆盖类型</th><th scope="col">宏站</th></tr><tr><th scope="col">频段</th><th scope="col">D</th></tr><tr><th scope="col">下行频点</th><th scope="col">37900</th></tr><tr><th scope="col">上行频点</th><th scope="col"></th></tr><tr><th scope="col">方向角</th><th scope="col">260</th></tr><tr><th scope="col">双工</th><th scope="col">TDD</th></tr><tr><th scope="col">机械下倾角</th><th scope="col">3</th></tr><tr><th scope="col">电子下倾角</th><th scope="col">3</th></tr><tr><th scope="col">天线挂高</th><th scope="col">30</th></tr></table>]]></description><styleUrl>#diy2</styleUrl><Polygon><extrude>1</extrude><altitudeMode>clampToGround</altitudeMode><outerBoundaryIs><LinearRing><coordinates>112.54704,32.96865,5 112.546407994417,32.9687439388512,5 112.546406139477,32.9687346273476,5 112.546404478151,32.9687252898223,5 112.546403010973,32.9687159291418,5 112.546401738412,32.9687065481813,5 112.546400660876,32.9686971498232,5 112.546399778711,32.9686877369567,5 112.5463990922,32.9686783124761,5 112.54639860156,32.96866887928,5 112.54639830695,32.9686594402703,5 112.546398208462,32.9686499983511,5 112.546398306127,32.9686405564275,5 112.54639859991,32.9686311174044,5 112.546399089716,32.9686216841859,5 112.546399775385,32.9686122596736,5 112.546400656694,32.9686028467659,5 112.546401733358,32.968593448357,5 112.54640300503,32.9685840673354,5 112.546404471301,32.9685747065836,5 112.546406131698,32.9685653689761,5 112.54640798569,32.9685560573794,5 112.546410032681,32.9685467746504,5 112.546412272019,32.9685375236357,5 112.54641470299,32.9685283071703,5 112.546417324819,32.9685191280774,5 112.546420136674,32.9685099891668,5 112.546423137664,32.9685008932345,5 112.54642632684,32.9684918430615,5 112.546429703196,32.9684828414135,5 112.54643326567,32.9684738910396,5 112.546437013141,32.9684649946715,5 112.546440944435,32.9684561550235,5 112.546445058323,32.9684473747906,5 112.546449353518,32.9684386566488,5 112.546453828683,32.9684300032538,5 112.546458482426,32.9684214172404,5 112.5464633133,32.968412901222,5 112.546468319807,32.9684044577894,5 112.546473500399,32.9683960895109,5 112.546478853472,32.9683877989307,5 112.546484377374,32.968379588569,5 112.54704,32.96865,5</coordinates></LinearRing></outerBoundaryIs></Polygon></Placemark><Placemark><name>市区理工大学南-NGH-1</name><description><![CDATA[<table width='300' border='1'><tr><th scope="col">TAC号</th><th scope="col">12202</th></tr><tr><th scope="col">站点号</th><th scope="col">240915</th></tr><tr><th scope="col">站点名</th><th scope="col">市区理工大学南-NGH</th></tr><tr><th scope="col">小区号</th><th scope="col">128</th></tr><tr><th scope="col">小区名</th><th scope="col">市区理工大学南-NGH-1</th></tr><tr><th scope="col">PCI</th><th scope="col">9</th></tr><tr><th scope="col">PRACH</th><th scope="col">36</th></tr><tr><th scope="col">经度</th><th scope="col">112.55147</th></tr><tr><th scope="col">纬度</th><th scope="col">32.96373</th></tr><tr><th scope="col">半径_米</th><th scope="col">500</th></tr><tr><th scope="col">波瓣_度</th><th scope="col">65</th></tr><tr><th scope="col">覆盖类型</th><th scope="col">宏站</th></tr><tr><th scope="col">频段</th><th scope="col">D</th></tr><tr><th scope="col">下行频点</th><th scope="col">37900</th></tr><tr><th scope="col">上行频点</th><th scope="col"></th></tr><tr><th scope="col">方向角</th><th scope="col">0</th></tr><tr><th scope="col">双工</th><th scope="col">TDD</th></tr><tr><th scope="col">机械下倾角</th><th scope="col">3</th></tr><tr><th scope="col">电子下倾角</th><th scope="col">3</th></tr><tr><th scope="col">天线挂高</th><th scope="col">30</th></tr></table>]]></description><styleUrl>#diy2</styleUrl><Polygon><extrude>1</extrude><altitudeMode>clampToGround</altitudeMode><outerBoundaryIs><LinearRing><coordinates>112.55147,32.96373,5 112.551689313508,32.9642379803424,5 112.551678763538,32.9642411284745,5 112.551668150072,32.9642441210199,5 112.551657476332,32.9642469570616,5 112.55164674556,32.9642496357299,5 112.551635961015,32.9642521562034,5 112.551625125972,32.9642545177085,5 112.551614243725,32.9642567195202,5 112.55160331758,32.9642587609624,5 112.551592350861,32.9642606414079,5 112.551581346902,32.9642623602788,5 112.55157030905,32.9642639170466,5 112.551559240662,32.9642653112326,5 112.551548145107,32.964266542408,5 112.551537025761,32.9642676101941,5 112.551525886008,32.9642685142621,5 112.55151472924,32.964269254334,5 112.551503558853,32.9642698301819,5 112.551492378247,32.9642702416285,5 112.551481190827,32.9642704885471,5 112.55147,32.9642705708618,5 112.551458809173,32.9642704885471,5 112.551447621753,32.9642702416285,5 112.551436441147,32.9642698301819,5 112.55142527076,32.964269254334,5 112.551414113992,32.9642685142621,5 112.551402974239,32.9642676101941,5 112.551391854893,32.964266542408,5 112.551380759338,32.9642653112326,5 112.55136969095,32.9642639170466,5 112.551358653098,32.9642623602788,5 112.551347649139,32.9642606414079,5 112.55133668242,32.9642587609624,5 112.551325756275,32.9642567195202,5 112.551314874028,32.9642545177085,5 112.551304038985,32.9642521562034,5 112.55129325444,32.9642496357299,5 112.551282523668,32.9642469570616,5 112.551271849928,32.9642441210199,5 112.551261236462,32.9642411284745,5 112.551250686492,32.9642379803424,5 112.55147,32.96373,5</coordinates></LinearRing></outerBoundaryIs></Polygon></Placemark><Placemark><name>市区理工大学南-NGH-2</name><description><![CDATA[<table width='300' border='1'><tr><th scope="col">TAC号</th><th scope="col">12202</th></tr><tr><th scope="col">站点号</th><th scope="col">240915</th></tr><tr><th scope="col">站点名</th><th scope="col">市区理工大学南-NGH</th></tr><tr><th scope="col">小区号</th><th scope="col">129</th></tr><tr><th scope="col">小区名</th><th scope="col">市区理工大学南-NGH-2</th></tr><tr><th scope="col">PCI</th><th scope="col">10</th></tr><tr><th scope="col">PRACH</th><th scope="col">40</th></tr><tr><th scope="col">经度</th><th scope="col">112.55147</th></tr><tr><th scope="col">纬度</th><th scope="col">32.96373</th></tr><tr><th scope="col">半径_米</th><th scope="col">500</th></tr><tr><th scope="col">波瓣_度</th><th scope="col">65</th></tr><tr><th scope="col">覆盖类型</th><th scope="col">宏站</th></tr><tr><th scope="col">频段</th><th scope="col">D</th></tr><tr><th scope="col">下行频点</th><th scope="col">37900</th></tr><tr><th scope="col">上行频点</th><th scope="col"></th></tr><tr><th scope="col">方向角</th><th scope="col">120</th></tr><tr><th scope="col">双工</th><th scope="col">TDD</th></tr><tr><th scope="col">机械下倾角</th><th scope="col">3</th></tr><tr><th scope="col">电子下倾角</th><th scope="col">3</th></tr><tr><th scope="col">天线挂高</th><th scope="col">30</th></tr></table>]]></description><styleUrl>#diy2</styleUrl><Polygon><extrude>1</extrude><altitudeMode>clampToGround</altitudeMode><outerBoundaryIs><LinearRing><coordinates>112.55147,32.96373,5 112.551882225047,32.9633158628754,5 112.551890743608,32.9633219832628,5 112.551899134356,32.9633282280973,5 112.551907394728,32.9633345954892,5 112.551915522202,32.9633410835115,5 112.551923514292,32.9633476901994,5 112.551931368558,32.9633544135523,5 112.551939082596,32.9633612515331,5 112.551946654049,32.9633682020697,5 112.551954080601,32.9633752630555,5 112.551961359979,32.9633824323498,5 112.551968489956,32.9633897077785,5 112.551975468348,32.9633970871351,5 112.551982293019,32.9634045681811,5 112.551988961877,32.9634121486466,5 112.551995472877,32.9634198262313,5 112.552001824022,32.9634275986049,5 112.552008013362,32.9634354634079,5 112.552014038997,32.9634434182524,5 112.552019899072,32.9634514607226,5 112.552025591785,32.9634595883758,5 112.552031115383,32.9634677987424,5 112.552036468161,32.9634760893277,5 112.552041648467,32.9634844576114,5 112.552046654699,32.9634929010493,5 112.552051485307,32.9635014170731,5 112.552056138793,32.963510003092,5 112.552060613712,32.9635186564927,5 112.552064908671,32.9635273746402,5 112.552069022332,32.9635361548789,5 112.55207295341,32.963544994533,5 112.552076700676,32.9635538909071,5 112.552080262954,32.9635628412872,5 112.552083639125,32.9635718429415,5 112.552086828126,32.9635808931209,5 112.552089828952,32.9635899890597,5 112.552092640653,32.963599127977,5 112.552095262338,32.9636083070766,5 112.552097693175,32.9636175235488,5 112.552099932391,32.9636267745705,5 112.552101979271,32.9636360573065,5 112.55147,32.96373,5</coordinates></LinearRing></outerBoundaryIs></Polygon></Placemark><Placemark><name>市区理工大学南-NGH-3</name><description><![CDATA[<table width='300' border='1'><tr><th scope="col">TAC号</th><th scope="col">12202</th></tr><tr><th scope="col">站点号</th><th scope="col">240915</th></tr><tr><th scope="col">站点名</th><th scope="col">市区理工大学南-NGH</th></tr><tr><th scope="col">小区号</th><th scope="col">130</th></tr><tr><th scope="col">小区名</th><th scope="col">市区理工大学南-NGH-3</th></tr><tr><th scope="col">PCI</th><th scope="col">11</th></tr><tr><th scope="col">PRACH</th><th scope="col">44</th></tr><tr><th scope="col">经度</th><th scope="col">112.55147</th></tr><tr><th scope="col">纬度</th><th scope="col">32.96373</th></tr><tr><th scope="col">半径_米</th><th scope="col">500</th></tr><tr><th scope="col">波瓣_度</th><th scope="col">65</th></tr><tr><th scope="col">覆盖类型</th><th scope="col">宏站</th></tr><tr><th scope="col">频段</th><th scope="col">D</th></tr><tr><th scope="col">下行频点</th><th scope="col">37900</th></tr><tr><th scope="col">上行频点</th><th scope="col"></th></tr><tr><th scope="col">方向角</th><th scope="col">240</th></tr><tr><th scope="col">双工</th><th scope="col">TDD</th></tr><tr><th scope="col">机械下倾角</th><th scope="col">3</th></tr><tr><th scope="col">电子下倾角</th><th scope="col">3</th></tr><tr><th scope="col">天线挂高</th><th scope="col">30</th></tr></table>]]></description><styleUrl>#diy2</styleUrl><Polygon><extrude>1</extrude><altitudeMode>clampToGround</altitudeMode><outerBoundaryIs><LinearRing><coordinates>112.55147,32.96373,5 112.550838020729,32.9636360573065,5 112.550840067609,32.9636267745705,5 112.550842306825,32.9636175235488,5 112.550844737662,32.9636083070766,5 112.550847359347,32.963599127977,5 112.550850171048,32.9635899890597,5 112.550853171874,32.9635808931209,5 112.550856360875,32.9635718429415,5 112.550859737046,32.9635628412872,5 112.550863299324,32.9635538909071,5 112.55086704659,32.963544994533,5 112.550870977668,32.9635361548789,5 112.550875091329,32.9635273746402,5 112.550879386288,32.9635186564927,5 112.550883861207,32.963510003092,5 112.550888514693,32.9635014170731,5 112.550893345301,32.9634929010493,5 112.550898351533,32.9634844576114,5 112.550903531839,32.9634760893277,5 112.550908884617,32.9634677987424,5 112.550914408215,32.9634595883758,5 112.550920100928,32.9634514607226,5 112.550925961003,32.9634434182524,5 112.550931986638,32.9634354634079,5 112.550938175978,32.9634275986049,5 112.550944527123,32.9634198262313,5 112.550951038123,32.9634121486466,5 112.550957706981,32.9634045681811,5 112.550964531652,32.9633970871351,5 112.550971510044,32.9633897077785,5 112.550978640021,32.9633824323498,5 112.550985919399,32.9633752630555,5 112.550993345951,32.9633682020697,5 112.551000917404,32.9633612515331,5 112.551008631442,32.9633544135523,5 112.551016485708,32.9633476901994,5 112.551024477798,32.9633410835115,5 112.551032605272,32.9633345954892,5 112.551040865644,32.9633282280973,5 112.551049256392,32.9633219832628,5 112.551057774953,32.9633158628754,5 112.55147,32.96373,5</coordinates></LinearRing></outerBoundaryIs></Polygon></Placemark><Placemark><name>市区理工宿舍楼-NGH-1</name><description><![CDATA[<table width='300' border='1'><tr><th scope="col">TAC号</th><th scope="col">12202</th></tr><tr><th scope="col">站点号</th><th scope="col">240916</th></tr><tr><th scope="col">站点名</th><th scope="col">市区理工宿舍楼-NGH</th></tr><tr><th scope="col">小区号</th><th scope="col">128</th></tr><tr><th scope="col">小区名</th><th scope="col">市区理工宿舍楼-NGH-1</th></tr><tr><th scope="col">PCI</th><th scope="col">12</th></tr><tr><th scope="col">PRACH</th><th scope="col">48</th></tr><tr><th scope="col">经度</th><th scope="col">112.55326</th></tr><tr><th scope="col">纬度</th><th scope="col">32.96761</th></tr><tr><th scope="col">半径_米</th><th scope="col">500</th></tr><tr><th scope="col">波瓣_度</th><th scope="col">65</th></tr><tr><th scope="col">覆盖类型</th><th scope="col">宏站</th></tr><tr><th scope="col">频段</th><th scope="col">F</th></tr><tr><th scope="col">下行频点</th><th scope="col">38400</th></tr><tr><th scope="col">上行频点</th><th scope="col"></th></tr><tr><th scope="col">方向角</th><th scope="col">30</th></tr><tr><th scope="col">双工</th><th scope="col">TDD</th></tr><tr><th scope="col">机械下倾角</th><th scope="col">3</th></tr><tr><th scope="col">电子下倾角</th><th scope="col">3</th></tr><tr><th scope="col">天线挂高</th><th scope="col">30</th></tr></table>]]></description><styleUrl>#diy0</styleUrl><Polygon><extrude>1</extrude><altitudeMode>clampToGround</altitudeMode><outerBoundaryIs><LinearRing><coordinates>112.55326,32.96761,5 112.553915152654,32.9680734229808,5 112.553905448155,32.9680829837388,5 112.553895547616,32.9680924003014,5 112.553885454056,32.968101669824,5 112.553875170556,32.9681107895062,5 112.553864700249,32.9681197565926,5 112.553854046324,32.9681285683736,5 112.553843212022,32.9681372221856,5 112.553832200639,32.9681457154126,5 112.55382101552,32.9681540454863,5 112.553809660064,32.9681622098868,5 112.553798137718,32.9681702061437,5 112.55378645198,32.9681780318367,5 112.553774606395,32.9681856845961,5 112.553762604555,32.9681931621035,5 112.553750450101,32.9682004620928,5 112.553738146716,32.9682075823508,5 112.553725698131,32.9682145207177,5 112.553713108119,32.9682212750878,5 112.553700380495,32.9682278434104,5 112.553687519116,32.9682342236902,5 112.55367452788,32.9682404139884,5 112.553661410725,32.9682464124224,5 112.553648171626,32.9682522171677,5 112.553634814597,32.9682578264574,5 112.553621343686,32.9682632385835,5 112.553607762977,32.9682684518971,5 112.553594076589,32.9682734648092,5 112.553580288673,32.9682782757912,5 112.553566403411,32.9682828833753,5 112.553552425015,32.9682872861553,5 112.553538357727,32.9682914827867,5 112.553524205818,32.9682954719877,5 112.553509973582,32.9682992525391,5 112.553495665341,32.9683028232853,5 112.553481285441,32.9683061831343,5 112.553466838249,32.9683093310581,5 112.553452328154,32.9683122660935,5 112.553437759565,32.968314987342,5 112.55342313691,32.9683174939705,5 112.553408464634,32.968319785211,5 112.55326,32.96761,5</coordinates></LinearRing></outerBoundaryIs></Polygon></Placemark><Placemark><name>市区理工宿舍楼-NGH-2</name><description><![CDATA[<table width='300' border='1'><tr><th scope="col">TAC号</th><th scope="col">12202</th></tr><tr><th scope="col">站点号</th><th scope="col">240916</th></tr><tr><th scope="col">站点名</th><th scope="col">市区理工宿舍楼-NGH</th></tr><tr><th scope="col">小区号</th><th scope="col">129</th></tr><tr><th scope="col">小区名</th><th scope="col">市区理工宿舍楼-NGH-2</th></tr><tr><th scope="col">PCI</th><th scope="col">13</th></tr><tr><th scope="col">PRACH</th><th scope="col">52</th></tr><tr><th scope="col">经度</th><th scope="col">112.55326</th></tr><tr><th scope="col">纬度</th><th scope="col">32.96761</th></tr><tr><th scope="col">半径_米</th><th scope="col">500</th></tr><tr><th scope="col">波瓣_度</th><th scope="col">65</th></tr><tr><th scope="col">覆盖类型</th><th scope="col">宏站</th></tr><tr><th scope="col">频段</th><th scope="col">F</th></tr><tr><th scope="col">下行频点</th><th scope="col">38400</th></tr><tr><th scope="col">上行频点</th><th scope="col"></th></tr><tr><th scope="col">方向角</th><th scope="col">150</th></tr><tr><th scope="col">双工</th><th scope="col">TDD</th></tr><tr><th scope="col">机械下倾角</th><th scope="col">3</th></tr><tr><th scope="col">电子下倾角</th><th scope="col">3</th></tr><tr><th scope="col">天线挂高</th><th scope="col">30</th></tr></table>]]></description><styleUrl>#diy0</styleUrl><Polygon><extrude>1</extrude><altitudeMode>clampToGround</altitudeMode><outerBoundaryIs><LinearRing><coordinates>112.55326,32.96761,5 112.553408434022,32.9669003831747,5 112.553423104027,32.9669026708347,5 112.553437724622,32.9669051736075,5 112.553452291373,32.9669078907422,5 112.553466799866,32.9669108214237,5 112.553481245698,32.9669139647727,5 112.55349562449,32.9669173198456,5 112.553509931879,32.9669208856352,5 112.553524163524,32.9669246610709,5 112.553538315105,32.9669286450187,5 112.553552382326,32.9669328362816,5 112.553566360915,32.9669372336002,5 112.553580246628,32.9669418356526,5 112.553594035246,32.966946641055,5 112.553607722579,32.9669516483622,5 112.553621304467,32.9669568560674,5 112.55363477678,32.9669622626034,5 112.553648135422,32.9669678663424,5 112.55366137633,32.9669736655968,5 112.553674495475,32.9669796586195,5 112.553687488865,32.9669858436043,5 112.553700352544,32.9669922186868,5 112.553713082597,32.9669987819443,5 112.553725675146,32.967005531397,5 112.553738126355,32.967012465008,5 112.553750432431,32.9670195806844,5 112.553762589624,32.9670268762774,5 112.553774594228,32.9670343495835,5 112.553786442583,32.9670419983444,5 112.553798131075,32.9670498202484,5 112.55380965614,32.9670578129309,5 112.553821014262,32.9670659739746,5 112.553832201974,32.9670743009109,5 112.553843215862,32.9670827912205,5 112.553854052563,32.9670914423338,5 112.553864708768,32.9671002516319,5 112.553875181223,32.9671092164477,5 112.553885466726,32.9671183340662,5 112.553895562136,32.9671276017258,5 112.553905464364,32.9671370166186,5 112.553915170383,32.967146575892,5 112.55326,32.96761,5</coordinates></LinearRing></outerBoundaryIs></Polygon></Placemark><Placemark><name>市区理工宿舍楼-NGH-3</name><description><![CDATA[<table width='300' border='1'><tr><th scope="col">TAC号</th><th scope="col">12202</th></tr><tr><th scope="col">站点号</th><th scope="col">240916</th></tr><tr><th scope="col">站点名</th><th scope="col">市区理工宿舍楼-NGH</th></tr><tr><th scope="col">小区号</th><th scope="col">130</th></tr><tr><th scope="col">小区名</th><th scope="col">市区理工宿舍楼-NGH-3</th></tr><tr><th scope="col">PCI</th><th scope="col">14</th></tr><tr><th scope="col">PRACH</th><th scope="col">56</th></tr><tr><th scope="col">经度</th><th scope="col">112.55326</th></tr><tr><th scope="col">纬度</th><th scope="col">32.96761</th></tr><tr><th scope="col">半径_米</th><th scope="col">500</th></tr><tr><th scope="col">波瓣_度</th><th scope="col">65</th></tr><tr><th scope="col">覆盖类型</th><th scope="col">宏站</th></tr><tr><th scope="col">频段</th><th scope="col">F</th></tr><tr><th scope="col">下行频点</th><th scope="col">38400</th></tr><tr><th scope="col">上行频点</th><th scope="col"></th></tr><tr><th scope="col">方向角</th><th scope="col">270</th></tr><tr><th scope="col">双工</th><th scope="col">TDD</th></tr><tr><th scope="col">机械下倾角</th><th scope="col">3</th></tr><tr><th scope="col">电子下倾角</th><th scope="col">3</th></tr><tr><th scope="col">天线挂高</th><th scope="col">30</th></tr></table>]]></description><styleUrl>#diy0</styleUrl><Polygon><extrude>1</extrude><altitudeMode>clampToGround</altitudeMode><outerBoundaryIs><LinearRing><coordinates>112.55326,32.96761,5 112.55245604813,32.967856666558,5 112.552451050402,32.9678448049247,5 112.552446299317,32.9678328712822,5 112.552441796376,32.9678208692699,5 112.552437543006,32.967808802551,5 112.552433540553,32.9677966748107,5 112.552429790289,32.967784489756,5 112.552426293407,32.9677722511135,5 112.552423051021,32.9677599626293,5 112.552420064164,32.9677476280669,5 112.55241733379,32.9677352512066,5 112.552414860773,32.9677228358437,5 112.552412645903,32.9677103857877,5 112.552410689891,32.9676979048607,5 112.552408993362,32.9676853968961,5 112.552407556862,32.9676728657373,5 112.552406380851,32.9676603152362,5 112.552405465706,32.9676477492519,5 112.55240481172,32.9676351716493,5 112.552404419102,32.9676225862976,5 112.552404287977,32.9676099970688,5 112.552404418385,32.9675974078363,5 112.552404810282,32.9675848224735,5 112.552405463541,32.9675722448523,5 112.552406377949,32.9675596788418,5 112.552407553209,32.9675471283065,5 112.552408988942,32.9675345971052,5 112.552410684686,32.9675220890896,5 112.552412639893,32.9675096081027,5 112.552414853936,32.9674971579776,5 112.552417326105,32.9674847425361,5 112.552420055607,32.9674723655874,5 112.552423041571,32.967460030927,5 112.552426283043,32.9674477423351,5 112.552429778993,32.9674355035755,5 112.55243352831,32.9674233183949,5 112.552437529804,32.9674111905208,5 112.55244178221,32.9673991236612,5 112.552446284185,32.9673871215033,5 112.552451034311,32.9673751877122,5 112.552456031094,32.9673633259299,5 112.55326,32.96761,5</coordinates></LinearRing></outerBoundaryIs></Polygon></Placemark></Folder></Document></kml>